radiation,city,state,extra,county,latitude,longitude,postal_code,state_code
1385.0,Öhningen,Baden-Württemberg,Freiburg Region,Konstanz,47.6619,8.8867,78337,BW
1383.0,Hohentengen am Hochrhein,Baden-Württemberg,Freiburg Region,Landkreis Waldshut,47.57,8.4325,79801,BW
1382.0,Stetten,Baden-Württemberg,Tübingen Region,Bodenseekreis,47.6901,9.2986,88719,BW
1375.0,Horgenzell,Baden-Württemberg,Tübingen Region,Landkreis Ravensburg,47.8,9.5,88263,BW
1373.0,Illmensee,Baden-Württemberg,Tübingen Region,Landkreis Sigmaringen,47.8623,9.3724,88636,BW
1369.0,Weißensberg,Bayern,Swabia,Landkreis Lindau,47.5813,9.7259,88138,BY
1363.0,Efringen-Kirchen,Baden-Württemberg,Freiburg Region,Landkreis Lörrach,47.65,7.5667,79588,BW
1361.0,Penzing,Bayern,Upper Bavaria,Landkreis Landsberg am Lech,48.0748,10.9274,86929,BY
1358.0,Steinhausen an der Rottum,Baden-Württemberg,Tübingen Region,Landkreis Biberach,48.0167,9.9667,88416,BW
1358.0,Neuenburg am Rhein,Baden-Württemberg,Freiburg Region,Landkreis Breisgau-Hochschwarzwald,47.8143,7.5601,79395,BW
1358.0,Türkenfeld,Bayern,Upper Bavaria,Fürstenfeldbruck,48.1053,11.083,82299,BY
1358.0,Buchloe,Bayern,Swabia,Landkreis Ostallgäu,48.0372,10.7255,86807,BY
1356.0,Buxheim,Bayern,Swabia,Landkreis Unterallgäu,48.0,10.1333,87740,BY
1356.0,Bergkirchen,Bayern,Upper Bavaria,Landkreis Dachau,48.2567,11.3649,85232,BY
1356.0,München,Bayern,Upper Bavaria,Kreisfreie Stadt München,48.1616,11.4141,81245,BY
1356.0,Memmingen,Bayern,Swabia,Memmingen,47.9837,10.1853,87700,BY
1355.0,Inning am Ammersee,Bayern,Upper Bavaria,Starnberg,48.0764,11.1523,82266,BY
1352.0,Planegg,Bayern,Upper Bavaria,Landkreis München,48.1067,11.4248,82152,BY
1352.0,Langerringen,Bayern,Swabia,Landkreis Augsburg,48.1459,10.7589,86853,BY
1351.0,Kellmünz,Bayern,Swabia,Neu-Ulm,48.1216,10.1281,89293,BY
1350.0,Steindorf,Bayern,Swabia,Landkreis Aichach-Friedberg,48.2167,11.0,82297,BY
1349.0,Eching,Bayern,Upper Bavaria,Landkreis Freising,48.3,11.6167,85386,BY
1347.0,Balzheim,Baden-Württemberg,Tübingen Region,Alb-Donau-Kreis,48.1833,10.0833,88481,BW
1347.0,Waltenhausen,Bayern,Swabia,Landkreis Günzburg,48.1905,10.3646,86480,BY
1346.0,Raisting,Bayern,Upper Bavaria,Landkreis Weilheim-Schongau,47.9167,11.1,82399,BY
1344.0,Altusried,Bayern,Swabia,Landkreis Oberallgäu,47.8041,10.2143,87452,BY
1342.0,Oberding,Bayern,Upper Bavaria,Erding,48.3167,11.85,85445,BY
1341.0,Kaufbeuren,Bayern,Swabia,Kaufbeuren,47.8824,10.6219,87600,BY
1340.0,Sasbach am Kaiserstuhl,Baden-Württemberg,Freiburg Region,Emmendingen,48.1333,7.6167,79361,BW
1340.0,Augsburg,Bayern,Swabia,Augsburg,48.3109,10.9001,86179,BY
1339.0,Kleinblittersdorf,Saarland,,Regionalverband Saarbrücken,49.1578,7.0373,66271,SL
1339.0,Pliening,Bayern,Upper Bavaria,Landkreis Ebersberg,48.1956,11.8007,85652,BY
1338.0,Icking,Bayern,Upper Bavaria,Landkreis Bad Tölz-Wolfratshausen,47.95,11.4333,82057,BY
1338.0,Jetzendorf,Bayern,Upper Bavaria,Landkreis Pfaffenhofen an der Ilm,48.4333,11.4167,85305,BY
1338.0,Gersheim,Saarland,,Saarpfalz-Kreis,49.15,7.2,66453,SL
1337.0,Glött,Bayern,Swabia,Landkreis Dillingen an der Donau,48.5,10.4833,89353,BY
1336.0,Blumberg,Baden-Württemberg,Freiburg Region,Schwarzwald-Baar-Kreis,47.8406,8.5333,78176,BW
1336.0,Gachenbach,Bayern,Upper Bavaria,Neuburg-Schrobenhausen,48.5,11.2333,86565,BY
1336.0,Emmingen-Liptingen,Baden-Württemberg,Freiburg Region,Landkreis Tuttlingen,47.9333,8.8833,78576,BW
1336.0,Holzheim,Bayern,Swabia,Landkreis Donau-Ries,48.6112,10.9484,86684,BY
1335.0,Kehl,Baden-Württemberg,Freiburg Region,Ortenaukreis,48.573,7.8152,77694,BW
1334.0,Rattenkirchen,Bayern,Upper Bavaria,Landkreis Mühldorf am Inn,48.2421,12.3151,84431,BY
1334.0,Hirrlingen,Baden-Württemberg,Tübingen Region,Tübingen,48.4125,8.8874,72145,BW
1334.0,Überherrn,Saarland,,Saarlouis,49.2419,6.6984,66802,SL
1334.0,Rangendingen,Baden-Württemberg,Tübingen Region,Zollernalbkreis,48.3817,8.8894,72414,BW
1333.0,Freiburg im Breisgau,Baden-Württemberg,Freiburg Region,Freiburg im Breisgau,47.9809,7.7957,79111,BW
1331.0,Tacherting,Bayern,Upper Bavaria,Landkreis Traunstein,48.0783,12.5701,83342,BY
1331.0,Hornbach,Rheinland-Pfalz,,Südwestpfalz,49.1878,7.3688,66500,RP
1331.0,Kempten,Bayern,Swabia,Kempten (Allgäu),47.7177,10.2989,87439,BY
1330.0,Wurmsham,Bayern,Lower Bavaria,Landshut,48.35,12.3333,84189,BY
1330.0,Tyrlaching,Bayern,Upper Bavaria,Landkreis Altötting,48.0667,12.6667,84558,BY
1329.0,Ulm,Baden-Württemberg,Tübingen Region,Ulm,48.3568,9.9601,89079,BW
1329.0,Ingolstadt,Bayern,Upper Bavaria,Ingolstadt,48.7212,11.4096,85051,BY
1328.0,Lichtenau,Baden-Württemberg,Karlsruhe Region,Rastatt,48.7261,8.0049,77839,BW
1328.0,Soyen,Bayern,Upper Bavaria,Landkreis Rosenheim,48.1081,12.2101,83564,BY
1326.0,Scheibenhardt,Rheinland-Pfalz,,Landkreis Germersheim,48.9812,8.1399,76779,RP
1326.0,Sontheim an der Brenz,Baden-Württemberg,Regierungsbezirk Stuttgart,Landkreis Heidenheim,48.5524,10.291,89567,BW
1326.0,Otterfing,Bayern,Upper Bavaria,Miesbach,47.909,11.6755,83624,BY
1325.0,Empfingen,Baden-Württemberg,Karlsruhe Region,Freudenstadt,48.3926,8.7104,72186,BW
1325.0,Vöhringen,Baden-Württemberg,Freiburg Region,Rottweil,48.3345,8.6639,72189,BW
1323.0,Zweibrücken,Rheinland-Pfalz,,"Zweibrücken, kreisfreie Stadt",49.2469,7.3698,66482,RP
1323.0,Baden-Baden,Baden-Württemberg,Karlsruhe Region,Baden-Baden,48.8038,8.1308,76532,BW
1323.0,Reutlingen,Baden-Württemberg,Tübingen Region,Reutlingen,48.4942,9.1666,72770,BW
1323.0,Großmehring,Bayern,Upper Bavaria,Eichstätt,48.7667,11.5333,85098,BY
1322.0,Landshut,Bayern,Lower Bavaria,Kreisfreie Stadt Landshut,48.5265,12.1575,84036,BY
1320.0,Rosenheim,Bayern,Upper Bavaria,Rosenheim,47.8748,12.111,83024,BY
1320.0,Geratskirchen,Bayern,Lower Bavaria,Landkreis Rottal-Inn,48.3386,12.6623,84552,BY
1320.0,Uffing am Staffelsee,Bayern,Upper Bavaria,Landkreis Garmisch-Partenkirchen,47.7167,11.15,82449,BY
1320.0,Spiesen-Elversberg,Saarland,,Neunkirchen,49.3167,7.1333,66583,SL
1320.0,Volkenschwand,Bayern,Lower Bavaria,Landkreis Kelheim,48.6,11.8833,84106,BY
1320.0,Herxheim bei Landau/Pfalz,Rheinland-Pfalz,,Landkreis Südliche Weinstraße,49.1414,8.2215,76863,RP
1319.0,Bondorf,Baden-Württemberg,Regierungsbezirk Stuttgart,Böblingen,48.5206,8.837,71149,BW
1319.0,Laufen,Bayern,Upper Bavaria,Berchtesgadener Land,47.9357,12.9286,83410,BY
1318.0,Flörsheim-Dalsheim,Rheinland-Pfalz,,Landkreis Alzey-Worms,49.6755,8.2089,67592,RP
1317.0,Perl,Saarland,,Merzig-Wadern,49.4717,6.3813,66706,SL
1316.0,Worms,Rheinland-Pfalz,,"Worms, kreisfreie Stadt",49.6163,8.2753,67551,RP
1316.0,Bempflingen,Baden-Württemberg,Regierungsbezirk Stuttgart,Esslingen,48.5718,9.2683,72658,BW
1316.0,Eggenstein-Leopoldshafen,Baden-Württemberg,Karlsruhe Region,Karlsruhe,49.0901,8.3988,76344,BW
1315.0,Bockenheim,Rheinland-Pfalz,,Landkreis Bad Dürkheim,49.6067,8.1849,67278,RP
1315.0,Zell-Zellertal,Rheinland-Pfalz,,Donnersbergkreis,49.6492,8.1397,67308,RP
1314.0,Marklkofen,Bayern,Lower Bavaria,Dingolfing-Landau,48.55,12.5667,84163,BY
1312.0,Großniedesheim,Rheinland-Pfalz,,Rhein-Pfalz-Kreis,49.5753,8.3122,67259,RP
1312.0,Lambsborn,Rheinland-Pfalz,,Landkreis Kaiserslautern,49.3667,7.4333,66894,RP
1311.0,Mallersdorf-Pfaffenberg,Bayern,Lower Bavaria,Landkreis Straubing-Bogen,48.7664,12.231,84066,BY
1311.0,Riesbürg,Baden-Württemberg,Regierungsbezirk Stuttgart,Ostalbkreis,48.85,10.4333,73469,BW
1311.0,Waldmohr,Rheinland-Pfalz,,Landkreis Kusel,49.3833,7.3333,66914,RP
1311.0,Dorn-Dürkheim,Rheinland-Pfalz,,Landkreis Mainz-Bingen,49.7686,8.2697,67585,RP
1311.0,Neulingen,Baden-Württemberg,Karlsruhe Region,Enzkreis,48.9667,8.7,75245,BW
1311.0,Heidenheim,Bayern,Regierungsbezirk Mittelfranken,Landkreis Weißenburg-Gunzenhausen,49.0172,10.7435,91719,BY
1309.0,Schierling,Bayern,Upper Palatinate,Landkreis Regensburg,48.8342,12.1395,84069,BY
1308.0,Pirmasens,Rheinland-Pfalz,,"Pirmasens, kreisfreie Stadt",49.2071,7.5911,66954,RP
1308.0,Oberriexingen,Baden-Württemberg,Regierungsbezirk Stuttgart,Ludwigsburg,48.9265,9.027,71739,BW
1307.0,Nordheim,Baden-Württemberg,Regierungsbezirk Stuttgart,Landkreis Heilbronn,49.1086,9.1278,74226,BW
1307.0,Speyer,Rheinland-Pfalz,,"Speyer, kreisfreie Stadt",49.3208,8.4311,67346,RP
1307.0,Oberpöring,Bayern,Lower Bavaria,Landkreis Deggendorf,48.7018,12.8248,94562,BY
1307.0,Frankenthal (Pfalz),Rheinland-Pfalz,,"Frankenthal (Pfalz), kreisfreie Stadt",49.5386,8.354,67227,RP
1306.0,Kirf,Rheinland-Pfalz,,Landkreis Trier-Saarburg,49.55,6.4833,54441,RP
1306.0,Oberasbach,Bayern,Regierungsbezirk Mittelfranken,Landkreis Fürth,49.4228,10.9577,90522,BY
1306.0,Wassertrüdingen,Bayern,Regierungsbezirk Mittelfranken,Landkreis Ansbach,49.0433,10.5991,91717,BY
1306.0,Heilbronn,Baden-Württemberg,Regierungsbezirk Stuttgart,Heilbronn,49.1566,9.1746,74078,BW
1306.0,Fürth,Bayern,Regierungsbezirk Mittelfranken,Fürth,49.4865,10.9608,90766,BY
1306.0,Stuttgart Zuffenhausen,Baden-Württemberg,Regierungsbezirk Stuttgart,Stuttgart,48.8413,9.1525,70439,BW
1305.0,Altlußheim,Baden-Württemberg,Karlsruhe Region,Rhein-Neckar-Kreis,49.3017,8.4992,68804,BW
1305.0,Landau in der Pfalz,Rheinland-Pfalz,,Kreisfreie Stadt Landau in der Pfalz,49.1984,8.1169,76829,RP
1304.0,Ludwigshafen am Rhein,Rheinland-Pfalz,,"Ludwigshafen am Rhein, kreisfreie Stadt",49.489,8.3791,67071,RP
1304.0,Pforzheim,Baden-Württemberg,Karlsruhe Region,Pforzheim,48.9006,8.6697,75179,BW
1304.0,Nürnberg,Bayern,Regierungsbezirk Mittelfranken,Nürnberg,49.4177,11.0297,90449,BY
1303.0,Rohr,Bayern,Regierungsbezirk Mittelfranken,Landkreis Roth,49.3411,10.8898,91189,BY
1303.0,Rotthalmünster,Bayern,Lower Bavaria,Landkreis Passau,48.3582,13.2016,94094,BY
1303.0,Wiesensteig,Baden-Württemberg,Regierungsbezirk Stuttgart,Göppingen,48.5613,9.6254,73349,BW
1302.0,Herzogenaurach,Bayern,Regierungsbezirk Mittelfranken,Landkreis Erlangen-Höchstadt,49.568,10.8856,91074,BY
1302.0,Erlangen,Bayern,Regierungsbezirk Mittelfranken,Kreisfreie Stadt Erlangen,49.55,11.0036,91058,BY
1302.0,Marpingen,Saarland,,St. Wendel,49.4523,7.0582,66646,SL
1301.0,Biblis,Hessen,Regierungsbezirk Darmstadt,Bergstraße,49.6917,8.4586,68647,HE
1301.0,Fellbach,Baden-Württemberg,Regierungsbezirk Stuttgart,Rems-Murr-Kreis,48.8239,9.272,70736,BW
1300.0,Hagenbüchach,Bayern,Regierungsbezirk Mittelfranken,Landkreis Neustadt an der Aisch-Bad Windsheim,49.5333,10.7667,91469,BY
1300.0,Mannheim,Baden-Württemberg,Karlsruhe Region,Mannheim,49.4883,8.4647,68239,BW
1299.0,Schwabach,Bayern,Regierungsbezirk Mittelfranken,Kreisfreie Stadt Schwabach,49.3305,11.0235,91126,BY
1299.0,Seinsheim,Bayern,Regierungsbezirk Unterfranken,Landkreis Kitzingen,49.6407,10.2204,97342,BY
1297.0,Becherbach,Rheinland-Pfalz,,Landkreis Bad Kreuznach,49.65,7.6833,67827,RP
1296.0,Pommersfelden,Bayern,Upper Franconia,Bamberg,49.7667,10.8167,96178,BY
1296.0,Nagold,Baden-Württemberg,Karlsruhe Region,Calw,48.5498,8.7237,72202,BW
1296.0,Dietfurt an der Altmühl,Bayern,Upper Palatinate,Landkreis Neumarkt in der Oberpfalz,49.0375,11.5839,92345,BY
1295.0,Biebesheim am Rhein,Hessen,Regierungsbezirk Darmstadt,Groß-Gerau,49.7836,8.4744,64584,HE
1294.0,Ansbach,Bayern,Regierungsbezirk Mittelfranken,Ansbach,49.3048,10.5931,91522,BY
1294.0,Frickenhausen am Main,Bayern,Regierungsbezirk Unterfranken,Landkreis Würzburg,49.6667,10.0833,97252,BY
1294.0,Heroldsbach,Bayern,Upper Franconia,Landkreis Forchheim,49.6934,10.9988,91336,BY
1294.0,Bretzfeld,Baden-Württemberg,Regierungsbezirk Stuttgart,Hohenlohekreis,49.1794,9.4383,74626,BW
1293.0,Kolitzheim,Bayern,Regierungsbezirk Unterfranken,Landkreis Schweinfurt,49.9167,10.2333,97509,BY
1292.0,Eckersweiler,Rheinland-Pfalz,,Landkreis Birkenfeld,49.5667,7.2833,55777,RP
1292.0,Regensburg,Bayern,Upper Palatinate,Regensburg,48.9965,12.1202,93053,BY
1292.0,Kaiserslautern,Rheinland-Pfalz,,"Kaiserslautern, kreisfreie Stadt",49.45,7.75,67653,RP
1291.0,Neustadt an der Weinstraße,Rheinland-Pfalz,,"Neustadt an der Weinstraße, kreisfreie Stadt",49.3465,8.1491,67433,RP
1291.0,Straubing,Bayern,Lower Bavaria,Straubing,48.8813,12.5739,94315,BY
1290.0,Satteldorf,Baden-Württemberg,Regierungsbezirk Stuttgart,Schwäbisch Hall,49.1695,10.0796,74589,BW
1286.0,Schwaig,Bayern,Regierungsbezirk Mittelfranken,Nürnberger Land,49.4695,11.2006,90571,BY
1286.0,Ebensfeld,Bayern,Upper Franconia,Landkreis Lichtenfels,50.0664,10.9583,96250,BY
1284.0,Creglingen,Baden-Württemberg,Regierungsbezirk Stuttgart,Main-Tauber-Kreis,49.4694,10.0312,97993,BW
1283.0,Haßmersheim,Baden-Württemberg,Karlsruhe Region,Neckar-Odenwald-Kreis,49.3,9.15,74855,BW
1283.0,Heidelberg,Baden-Württemberg,Karlsruhe Region,Heidelberg,49.3829,8.6656,69124,BW
1282.0,Trier,Rheinland-Pfalz,,"Trier, kreisfreie Stadt",49.744,6.6188,54294,RP
1282.0,Stettfeld,Bayern,Regierungsbezirk Unterfranken,Landkreis Haßberge,49.9719,10.7239,96188,BY
1281.0,Würzburg,Bayern,Regierungsbezirk Unterfranken,Würzburg,49.8044,9.977,97076,BY
1281.0,Itzgrund,Bayern,Upper Franconia,Landkreis Coburg,50.15,10.9,96274,BY
1279.0,Alsbach-Hähnlein,Hessen,Regierungsbezirk Darmstadt,Darmstadt-Dieburg,49.7386,8.5958,64665,HE
1278.0,Dachwig,Thüringen,,Landkreis Gotha,51.0777,10.8548,99100,TH
1278.0,Gebesee,Thüringen,,Landkreis Sömmerda,51.1149,10.9345,99189,TH
1278.0,Echternacherbrück,Rheinland-Pfalz,,Eifelkreis Bitburg-Prüm,49.8167,6.4333,54668,RP
1278.0,Passau,Bayern,Lower Bavaria,Passau,48.589,13.3971,94034,BY
1277.0,Schweinfurt,Bayern,Regierungsbezirk Unterfranken,Schweinfurt,50.0348,10.2064,97424,BY
1277.0,Herbsleben,Thüringen,,Unstrut-Hainich-Kreis,51.1167,10.8333,99955,TH
1275.0,Erfurt,Thüringen,,"Erfurt, Stadt",51.0143,10.9929,99091,TH
1273.0,Aufseß,Bayern,Upper Franconia,Landkreis Bayreuth,49.8837,11.2269,91347,BY
1273.0,Wonsees,Bayern,Upper Franconia,Landkreis Kulmbach,49.9761,11.3005,96197,BY
1273.0,Birgland,Bayern,Upper Palatinate,Amberg-Sulzbach,49.4167,11.6333,92262,BY
1272.0,Gleina,Sachsen-Anhalt,,Burgenlandkreis,51.258,11.7203,6632,ST
1272.0,Steigra,Sachsen-Anhalt,,Saalekreis,51.3,11.6667,6268,ST
1271.0,Breit,Rheinland-Pfalz,,Landkreis Bernkastel-Wittlich,49.7756,6.9056,54426,RP
1271.0,Burglengenfeld,Bayern,Upper Palatinate,Landkreis Schwandorf,49.2038,12.0445,93133,BY
1271.0,Mainz,Rheinland-Pfalz,,"Mainz, kreisfreie Stadt",49.9661,8.2663,55129,RP
1270.0,Clingen,Thüringen,,Kyffhäuserkreis,51.2321,10.9328,99718,TH
1270.0,Bad Sulza,Thüringen,,Weimarer Land,51.0893,11.6247,99518,TH
1269.0,Arnstein,Bayern,Regierungsbezirk Unterfranken,Main-Spessart,49.9777,9.9698,97450,BY
1269.0,Darmstadt,Hessen,Regierungsbezirk Darmstadt,"Darmstadt, Wissenschaftsstadt",49.8192,8.6449,64297,HE
1268.0,Sulzdorf an der Lederhecke,Bayern,Regierungsbezirk Unterfranken,Landkreis Rhön-Grabfeld,50.2408,10.5628,97528,BY
1268.0,Amberg,Bayern,Upper Palatinate,Amberg,49.4429,11.8627,92224,BY
1268.0,Schweickershausen,Thüringen,,Landkreis Hildburghausen,50.2392,10.6304,98663,TH
1268.0,Hainichen,Thüringen,,Saale-Holzland-Kreis,51.0,11.6167,7778,TH
1268.0,Schneckenlohe,Bayern,Upper Franconia,Landkreis Kronach,50.2118,11.194,96277,BY
1266.0,Coburg,Bayern,Upper Franconia,Coburg,50.2594,10.9638,96450,BY
1266.0,Weimar,Thüringen,,"Weimar, Stadt",50.9867,11.3156,99427,TH
1266.0,Henau,Rheinland-Pfalz,,Rhein-Hunsrück-Kreis,49.8667,7.5,55490,RP
1265.0,Stedten,Sachsen-Anhalt,,Mansfeld-Südharz,51.4431,11.6929,6317,ST
1264.0,Rettenbach,Bayern,Upper Palatinate,Cham,49.0667,12.45,93191,BY
1264.0,Naundorf,Thüringen,,Altenburger Land,50.9776,12.2668,4617,TH
1263.0,Mainz-Kostheim,Hessen,Regierungsbezirk Darmstadt,"Wiesbaden, Landeshauptstadt",50.0051,8.3134,55246,HE
1263.0,Jena,Thüringen,,"Jena, Stadt",50.943,11.6034,7749,TH
1262.0,Reichstädt,Thüringen,,Landkreis Greiz,50.9215,12.2342,7580,TH
1261.0,Hochheim am Main,Hessen,Regierungsbezirk Darmstadt,Main-Taunus-Kreis,50.0144,8.3522,65239,HE
1261.0,Brensbach,Hessen,Regierungsbezirk Darmstadt,Odenwaldkreis,49.7739,8.8844,64395,HE
1261.0,Thundorf in Unterfranken,Bayern,Regierungsbezirk Unterfranken,Landkreis Bad Kissingen,50.201,10.3191,97711,BY
1260.0,Bayreuth,Bayern,Upper Franconia,Bayreuth,49.9431,11.5592,95445,BY
1260.0,Halle,Sachsen-Anhalt,,Kreisfreie Stadt Halle,51.441,11.9856,6130,ST
1260.0,Elstertrebnitz,Sachsen,,Landkreis Leipzig,51.15,12.2333,4523,SN
1259.0,Rockhausen,Thüringen,,Ilm-Kreis,50.9015,11.0408,99102,TH
1259.0,Kirchenthumbach,Bayern,Upper Palatinate,Landkreis Neustadt an der Waldnaab,49.7487,11.7254,91281,BY
1258.0,Titz,Nordrhein-Westfalen,Regierungsbezirk Köln,Düren,51.0062,6.4248,52445,NW
1258.0,Schkeuditz,Sachsen,,Landkreis Nordsachsen,51.3968,12.2214,4435,SN
1258.0,Fürsteneck,Bayern,Lower Bavaria,Freyung-Grafenau,48.7167,13.4667,94142,BY
1257.0,Geisenheim,Hessen,Regierungsbezirk Darmstadt,Rheingau-Taunus-Kreis,49.9847,7.9684,65366,HE
1257.0,Elsdorf,Nordrhein-Westfalen,Regierungsbezirk Köln,Rhein-Erft-Kreis,50.9374,6.5683,50189,NW
1256.0,Baesweiler,Nordrhein-Westfalen,Regierungsbezirk Köln,Städteregion Aachen,50.9096,6.1887,52499,NW
1256.0,Oberwiera,Sachsen,,Zwickau,50.8833,12.5,8396,SN
1256.0,Burghausen,Sachsen,,Kreisfreie Stadt Leipzig,51.3566,12.2643,4178,SN
1255.0,Gera,Thüringen,,"Gera, Stadt",50.8901,12.1019,7546,TH
1255.0,Übach-Palenberg,Nordrhein-Westfalen,Regierungsbezirk Köln,Kreis Heinsberg,50.9177,6.1234,52531,NW
1254.0,Schrenz,Sachsen-Anhalt,,Anhalt-Bitterfeld,51.5876,12.0716,6780,ST
1253.0,Zickeritz,Sachsen-Anhalt,,Salzlandkreis,51.6348,11.7338,6420,ST
1252.0,Jüchen,Nordrhein-Westfalen,Reg.-Bez. Düsseldorf,Rhein-Kreis Neuss,51.1,6.5,41363,NW
1251.0,Egelsbach,Hessen,Regierungsbezirk Darmstadt,Offenbach,49.9679,8.6634,63329,HE
1250.0,Ostrau,Sachsen,,Landkreis Mittelsachsen,51.2,13.1667,4749,SN
1249.0,Behrungen,Thüringen,,Landkreis Schmalkalden-Meiningen,50.4109,10.4147,98631,TH
1249.0,Frankfurt am Main,Hessen,Regierungsbezirk Darmstadt,"Frankfurt am Main, Stadt",50.0413,8.5702,60549,HE
1249.0,Mönchengladbach,Nordrhein-Westfalen,Reg.-Bez. Düsseldorf,"Mönchengladbach, Stadt",51.1514,6.4703,41238,NW
1249.0,Mömlingen,Bayern,Regierungsbezirk Unterfranken,Landkreis Miltenberg,49.8597,9.0833,63853,BY
1248.0,Krefeld,Nordrhein-Westfalen,Reg.-Bez. Düsseldorf,"Krefeld, Stadt",51.3037,6.5032,47804,NW
1248.0,Leuben-Schleinitz,Sachsen,,Landkreis Meißen,51.1524,13.3333,1623,SN
1247.0,Kastl,Bayern,Upper Palatinate,Landkreis Tirschenreuth,49.8333,11.9,95506,BY
1247.0,Willich,Nordrhein-Westfalen,Reg.-Bez. Düsseldorf,Viersen,51.2637,6.5473,47877,NW
1247.0,Niederdorfelden,Hessen,Regierungsbezirk Darmstadt,Main-Kinzig-Kreis,50.1942,8.8,61138,HE
1246.0,Haserich,Rheinland-Pfalz,,Landkreis Cochem-Zell,50.0333,7.3333,56858,RP
1246.0,Behringen,Thüringen,,Wartburgkreis,51.0217,10.5101,99820,TH
1246.0,Offenbach,Hessen,Regierungsbezirk Darmstadt,"Offenbach am Main, Stadt",50.1069,8.7344,63067,HE
1246.0,Zülpich,Nordrhein-Westfalen,Regierungsbezirk Köln,Euskirchen,50.7,6.65,53909,NW
1246.0,Großkochberg,Thüringen,,Saalfeld-Rudolstadt,50.7749,11.3558,7407,TH
1245.0,Weiden,Bayern,Upper Palatinate,Weiden i.d.OPf.,49.6768,12.1561,92637,BY
1245.0,Bad Vilbel,Hessen,Regierungsbezirk Darmstadt,Wetteraukreis,50.1787,8.7376,61118,HE
1245.0,Prackenbach,Bayern,Lower Bavaria,Landkreis Regen,49.0954,12.8261,94267,BY
1245.0,Wierschem,Rheinland-Pfalz,,Landkreis Mayen-Koblenz,50.2256,7.3516,56294,RP
1244.0,Kleinfurra,Thüringen,,Landkreis Nordhausen,51.4156,10.7645,99735,TH
1242.0,Sauerthal,Rheinland-Pfalz,,Rhein-Lahn-Kreis,50.0855,7.8211,65391,RP
1241.0,Pillingsdorf,Thüringen,,Saale-Orla-Kreis,50.7803,11.7941,7819,TH
1241.0,Sülzetal,Sachsen-Anhalt,,Börde,52.0167,11.55,39171,ST
1241.0,Mückeln,Rheinland-Pfalz,,Vulkaneifel,50.0833,6.9167,54558,RP
1241.0,Stammbach,Bayern,Upper Franconia,Landkreis Hof,50.1455,11.6913,95236,BY
1240.0,Heteborn,Sachsen-Anhalt,,Landkreis Harz,51.8931,11.292,6458,ST
1240.0,Rheurdt,Nordrhein-Westfalen,Reg.-Bez. Düsseldorf,Kleve,51.4667,6.4667,47509,NW
1239.0,Swisttal,Nordrhein-Westfalen,Regierungsbezirk Köln,Rhein-Sieg-Kreis,50.7,6.9167,53913,NW
1239.0,Neukirchen-Vluyn,Nordrhein-Westfalen,Reg.-Bez. Düsseldorf,Wesel,51.45,6.55,47506,NW
1239.0,Düsseldorf,Nordrhein-Westfalen,Reg.-Bez. Düsseldorf,"Düsseldorf, Stadt",51.2302,6.7135,40549,NW
1239.0,Großostheim,Bayern,Regierungsbezirk Unterfranken,Landkreis Aschaffenburg,49.9199,9.076,63762,BY
1238.0,Magdeburg,Sachsen-Anhalt,,Landeshauptstadt Magdeburg,52.082,11.586,39014,ST
1238.0,Köln,Nordrhein-Westfalen,Regierungsbezirk Köln,"Köln, Stadt",50.9535,6.8328,50859,NW
1236.0,Neuhaus-Schierschnitz,Thüringen,,Landkreis Sonneberg,50.3124,11.2402,96524,TH
1236.0,Duisburg,Nordrhein-Westfalen,Reg.-Bez. Düsseldorf,"Duisburg, Stadt",51.3926,6.6564,47239,NW
1236.0,Wittgensdorf,Sachsen,,"Chemnitz, Stadt",50.8832,12.8703,9228,SN
1235.0,Cottbus,Brandenburg,,Kreisfreie Stadt Cottbus,51.756,14.3197,3046,BB
1235.0,Mühlberg (Elbe),Brandenburg,,Landkreis Elbe-Elster,51.4333,13.2167,4931,BB
1235.0,Raddusch,Brandenburg,,Landkreis Oberspreewald-Lausitz,51.8181,14.0403,3226,BB
1234.0,Weißenstadt,Bayern,Upper Franconia,Wunsiedel i.Fichtelgebirge,50.1022,11.8885,95163,BY
1234.0,Haasow,Brandenburg,,Landkreis Spree-Neiße,51.7426,14.4209,3058,BB
1234.0,Schönau-Berzdorf auf dem Eigen,Sachsen,,Landkreis Görlitz,51.0667,14.9,2899,SN
1233.0,Schlabendorf,Brandenburg,,Landkreis Dahme-Spreewald,51.8084,13.8206,15926,BB
1233.0,Bad Homburg vor der Höhe,Hessen,Regierungsbezirk Darmstadt,Hochtaunuskreis,50.2167,8.6167,61352,HE
1232.0,Deuna,Thüringen,,Eichsfeld,51.3545,10.4744,37355,TH
1231.0,Dornburg,Sachsen-Anhalt,,Jerichower Land,52.034,11.8802,39264,ST
1231.0,Monheim am Rhein,Nordrhein-Westfalen,Reg.-Bez. Düsseldorf,Mettmann,51.0916,6.8922,40789,NW
1231.0,Wilsdruff,Sachsen,,Landkreis Sächsische Schweiz,51.052,13.5366,1723,SN
1230.0,Neumark,Sachsen,,Vogtlandkreis,50.6601,12.3562,8496,SN
1230.0,Aschaffenburg,Bayern,Regierungsbezirk Unterfranken,Aschaffenburg,49.9648,9.1647,63743,BY
1230.0,"Dresden Gompitz, Unkersdorf",Sachsen,,Kreisfreie Stadt Dresden,51.0572,13.5903,1156,SN
1230.0,Beierstedt,Niedersachsen,,Landkreis Helmstedt,52.0741,10.8581,38382,NI
1230.0,Hünfelden,Hessen,Reg.-Bez. Gießen,Limburg-Weilburg,50.3286,8.1476,65597,HE
1230.0,Hof,Bayern,Upper Franconia,Hof,50.2953,11.9103,95032,BY
1229.0,Friedland Friedland,Brandenburg,,Landkreis Oder-Spree,52.1,14.2667,15848,BB
1229.0,Bonn,Nordrhein-Westfalen,Regierungsbezirk Köln,"Bonn, Stadt",50.711,7.0489,53123,NW
1229.0,Winnigstedt,Niedersachsen,,Landkreis Wolfenbüttel,52.0663,10.7688,38170,NI
1228.0,Berg,Rheinland-Pfalz,,Landkreis Ahrweiler,50.5552,6.9489,53505,RP
1227.0,Dessau,Sachsen-Anhalt,,Dessau-Roßlau,51.8221,12.1917,6847,ST
1227.0,Lebus,Brandenburg,,Landkreis Märkisch-Oderland,52.4272,14.5323,15326,BB
1226.0,Frankfurt (Oder),Brandenburg,,Frankfurt (Oder),52.3646,14.5244,15234,BB
1225.0,Koblenz,Rheinland-Pfalz,,"Koblenz, kreisfreie Stadt",50.3201,7.5682,56075,RP
1224.0,Groß Naundorf,Sachsen-Anhalt,,Landkreis Wittenberg,51.6943,12.9973,6925,ST
1223.0,Spreetal,Sachsen,,Landkreis Bautzen,51.5167,14.3667,2979,SN
1223.0,Herbersdorf,Brandenburg,,Landkreis Teltow-Fläming,51.8618,13.295,14913,BB
1223.0,Leverkusen,Nordrhein-Westfalen,Regierungsbezirk Köln,"Leverkusen, Stadt",51.0645,6.9592,51371,NW
1223.0,Hohndorf,Sachsen,,Erzgebirgskreis,50.7404,12.6806,9394,SN
1221.0,Gleichen,Niedersachsen,,Landkreis Göttingen,51.4667,10.0333,37130,NI
1220.0,Oberhausen,Nordrhein-Westfalen,Reg.-Bez. Düsseldorf,"Oberhausen, Stadt",51.5355,6.8116,46147,NW
1219.0,Mülheim an der Ruhr,Nordrhein-Westfalen,Reg.-Bez. Düsseldorf,"Mülheim an der Ruhr, Stadt",51.4326,6.8216,45478,NW
1219.0,Isselburg,Nordrhein-Westfalen,Reg.-Bez. Münster,Borken,51.8323,6.4643,46419,NW
1219.0,Hamm,Nordrhein-Westfalen,Reg.-Bez. Arnsberg,"Hamm, Stadt",51.691,7.8704,59071,NW
1218.0,Solingen,Nordrhein-Westfalen,Reg.-Bez. Düsseldorf,"Solingen, Stadt",51.1611,7.0016,42697,NW
1218.0,Söhlde,Niedersachsen,,Landkreis Hildesheim,52.189,10.2324,31185,NI
1218.0,Salzgitter Lesse,Niedersachsen,,"Salzgitter, Stadt",52.1606,10.2569,38228,NI
1217.0,Ahlen,Nordrhein-Westfalen,Reg.-Bez. Münster,Warendorf,51.7602,7.8845,59227,NW
1217.0,Erpel,Rheinland-Pfalz,,Landkreis Neuwied,50.5833,7.2333,53579,RP
1216.0,Wiek,Mecklenburg-Vorpommern,,Vorpommern-Rügen,54.62,13.2891,18556,MV
1216.0,Leichlingen,Nordrhein-Westfalen,Regierungsbezirk Köln,Rheinisch-Bergischer Kreis,51.1063,7.0187,42799,NW
1216.0,Liebenburg,Niedersachsen,,Landkreis Goslar,52.0218,10.4317,38704,NI
1216.0,Herleshausen,Hessen,Regierungsbezirk Kassel,Werra-Meißner-Kreis,51.0063,10.1673,37293,HE
1216.0,Lengede,Niedersachsen,,Peine,52.2049,10.3078,38268,NI
1215.0,Welver,Nordrhein-Westfalen,Reg.-Bez. Arnsberg,Soest,51.6167,7.9667,59514,NW
1215.0,Görgeshausen,Rheinland-Pfalz,,Westerwaldkreis,50.4167,7.95,56412,RP
1214.0,Homberg (Efze),Hessen,Regierungsbezirk Kassel,Schwalm-Eder-Kreis,51.0333,9.4,34576,HE
1214.0,Bönen,Nordrhein-Westfalen,Reg.-Bez. Arnsberg,Unna,51.6,7.7667,59199,NW
1214.0,Bottrop,Nordrhein-Westfalen,Reg.-Bez. Münster,"Bottrop, Stadt",51.5232,6.9253,46236,NW
1214.0,Ascheberg,Nordrhein-Westfalen,Reg.-Bez. Münster,Coesfeld,51.7833,7.6167,59387,NW
1214.0,Ketzin,Brandenburg,,Landkreis Havelland,52.4781,12.8453,14669,BB
1214.0,Krielow,Brandenburg,,Landkreis Potsdam-Mittelmark,52.4166,12.8034,14550,BB
1213.0,Dorsten,Nordrhein-Westfalen,Reg.-Bez. Münster,Recklinghausen,51.6566,6.9657,46282,NW
1213.0,Essen,Nordrhein-Westfalen,Reg.-Bez. Düsseldorf,"Essen, Stadt",51.4681,6.9174,45359,NW
1213.0,Uetz-Paaren,Brandenburg,,Kreisfreie Stadt Potsdam,52.4726,12.9376,14476,BB
1213.0,Braunschweig,Niedersachsen,,Kreisfreie Stadt Braunschweig,52.224,10.4989,38122,NI
1212.0,Wuppertal,Nordrhein-Westfalen,Reg.-Bez. Düsseldorf,"Wuppertal, Stadt",51.2424,7.06,42327,NW
1212.0,Bochum,Nordrhein-Westfalen,Reg.-Bez. Arnsberg,"Bochum, Stadt",51.4509,7.2388,44799,NW
1211.0,Gelsenkirchen,Nordrhein-Westfalen,Reg.-Bez. Münster,"Gelsenkirchen, Stadt",51.5592,7.0841,45891,NW
1210.0,Hattingen,Nordrhein-Westfalen,Reg.-Bez. Arnsberg,Ennepe-Ruhr-Kreis,51.4,7.1667,45529,NW
1210.0,Hohenroda,Hessen,Regierungsbezirk Kassel,Hersfeld-Rotenburg,50.8,9.9,36284,HE
1210.0,Eiterfeld,Hessen,Regierungsbezirk Kassel,Fulda,50.7667,9.8,36132,HE
1210.0,Hungen,Hessen,Reg.-Bez. Gießen,Gießen,50.4737,8.8933,35410,HE
1209.0,Langenberg,Nordrhein-Westfalen,Reg.-Bez. Detmold,Gütersloh,51.7721,8.3181,33449,NW
1209.0,Nörten-Hardenberg,Niedersachsen,,Northeim,51.6288,9.9359,37176,NI
1209.0,Waldsolms,Hessen,Reg.-Bez. Gießen,Lahn-Dill-Kreis,50.4167,8.5167,35647,HE
1209.0,Grebenau,Hessen,Reg.-Bez. Gießen,Vogelsbergkreis,50.7424,9.4731,36323,HE
1208.0,Gollwitz,Brandenburg,,Kreisfreie Stadt Brandenburg an der Havel,52.4195,12.6451,14778,BB
1208.0,Münster,Nordrhein-Westfalen,Reg.-Bez. Münster,"Münster, Stadt",51.903,7.6395,48165,NW
1208.0,Herne,Nordrhein-Westfalen,Reg.-Bez. Arnsberg,"Herne, Stadt",51.5448,7.1691,44653,NW
1208.0,Kehnert,Sachsen-Anhalt,,Landkreis Stendal,52.343,11.8592,39517,ST
1207.0,Dortmund,Nordrhein-Westfalen,Reg.-Bez. Arnsberg,"Dortmund, Stadt",51.553,7.5385,44328,NW
1206.0,Miesterhorst,Sachsen-Anhalt,,Altmarkkreis Salzwedel,52.4605,11.1412,39649,ST
1205.0,Pattensen,Niedersachsen,,Region Hannover,52.2645,9.7644,30982,NI
1205.0,Berlin,Berlin,,"Berlin, Stadt",52.3886,13.3907,12307,BE
1205.0,Kircheib,Rheinland-Pfalz,,Landkreis Altenkirchen,50.7092,7.4597,57635,RP
1204.0,Schwülper,Niedersachsen,,Landkreis Gifhorn,52.3481,10.4463,38179,NI
1204.0,Hagen,Nordrhein-Westfalen,Reg.-Bez. Arnsberg,"Hagen, Stadt",51.3801,7.4394,58089,NW
1203.0,Wolfsburg,Niedersachsen,,"Wolfsburg, Stadt",52.3808,10.8285,38446,NI
1203.0,Habichtswald,Hessen,Regierungsbezirk Kassel,Kassel,51.3285,9.3392,34317,HE
1202.0,Menden,Nordrhein-Westfalen,Reg.-Bez. Arnsberg,Märkischer Kreis,51.4553,7.7764,58708,NW
1202.0,Remscheid,Nordrhein-Westfalen,Reg.-Bez. Düsseldorf,"Remscheid, Stadt",51.1775,7.1661,42857,NW
1202.0,Pinnow,Brandenburg,,Landkreis Uckermark,53.062,14.0856,16278,BB
1201.0,Delbrück,Nordrhein-Westfalen,Reg.-Bez. Detmold,Paderborn,51.7802,8.484,33129,NW
1200.0,Kassel,Hessen,Regierungsbezirk Kassel,"Kassel, documenta-Stadt",51.3056,9.4652,34121,HE
1199.0,Fehrbellin Königshorst,Brandenburg,,Landkreis Ostprignitz-Ruppin,52.7167,12.8,16833,BB
1199.0,Neustadt (Hessen),Hessen,Reg.-Bez. Gießen,Marburg-Biedenkopf,50.85,9.1167,35279,HE
1198.0,Lunow-Stolzenhagen,Brandenburg,,Landkreis Barnim,52.9333,14.1083,16248,BB
1195.0,Borgentreich,Nordrhein-Westfalen,Reg.-Bez. Detmold,Höxter,51.5692,9.2411,34434,NW
1194.0,Altenberge,Nordrhein-Westfalen,Reg.-Bez. Münster,Steinfurt,52.05,7.4667,48341,NW
1194.0,Bad Nenndorf Waltringhausen,Niedersachsen,,Landkreis Schaumburg,52.3429,9.4052,31542,NI
1193.0,Volkmarsen,Hessen,Regierungsbezirk Kassel,Landkreis Waldeck-Frankenberg,51.409,9.1181,34471,HE
1193.0,Bücken,Niedersachsen,,Landkreis Nienburg/Weser,52.7788,9.1337,27333,NI
1192.0,Suhl,Thüringen,,Kreisfreie Stadt Suhl,50.6,10.7,98528,TH
1192.0,Hennigsdorf,Brandenburg,,Landkreis Oberhavel,52.636,13.2042,16761,BB
1192.0,Fehmarn,Schleswig-Holstein,,Kreis Ostholstein,54.4378,11.1935,23769,SH
1192.0,Seeheilbad Graal-Müritz,Mecklenburg-Vorpommern,,Landkreis Rostock,54.2512,12.2514,18181,MV
1192.0,Asendorf,Niedersachsen,,Landkreis Diepholz,52.7722,9.0049,27330,NI
1192.0,Radevormwald,Nordrhein-Westfalen,Regierungsbezirk Köln,Oberbergischer Kreis,51.2022,7.3603,42477,NW
1192.0,Salzhemmendorf,Niedersachsen,,Hameln-Pyrmont,52.0887,9.6312,31020,NI
1191.0,Delligsen,Niedersachsen,,Landkreis Holzminden,51.9412,9.8027,31073,NI
1190.0,Bergen (Dumme) Nienbergen,Niedersachsen,,Lüchow-Dannenberg,52.861,10.9443,29468,NI
1190.0,Norderney,Niedersachsen,,Landkreis Aurich,53.7083,7.1582,26548,NI
1188.0,Arnsberg,Nordrhein-Westfalen,Reg.-Bez. Arnsberg,Hochsauerlandkreis,51.4263,7.9913,59759,NW
1186.0,Dörverden,Niedersachsen,,Landkreis Verden,52.85,9.2333,27313,NI
1186.0,Rühstädt,Brandenburg,,Landkreis Prignitz,52.9167,11.8667,19322,BB
1185.0,Penkun,Mecklenburg-Vorpommern,,Vorpommern-Greifswald,53.2969,14.2362,17328,MV
1185.0,Passee,Mecklenburg-Vorpommern,,Nordwestmecklenburg,53.9559,11.7698,23992,MV
1185.0,Soltendieck,Niedersachsen,,Uelzen,52.8737,10.7616,29594,NI
1184.0,Herford,Nordrhein-Westfalen,Reg.-Bez. Detmold,Herford,52.1337,8.6963,32049,NW
1183.0,Bielefeld,Nordrhein-Westfalen,Reg.-Bez. Detmold,"Bielefeld, Stadt",52.0707,8.6002,33729,NW
1183.0,Petershagen,Nordrhein-Westfalen,Reg.-Bez. Detmold,Minden-Lübbecke,52.3751,8.9654,32469,NW
1183.0,Bröckel,Niedersachsen,,Landkreis Celle,52.5163,10.2151,29356,NI
1181.0,Rostock,Mecklenburg-Vorpommern,,Kreisfreie Stadt Rostock,54.1282,12.1761,18146,MV
1181.0,Bad Salzuflen,Nordrhein-Westfalen,Reg.-Bez. Detmold,Lippe,52.0808,8.7505,32105,NW
1180.0,Lindwedel,Niedersachsen,,Landkreis Heidekreis,52.6078,9.6874,29690,NI
1178.0,Mildenitz,Mecklenburg-Vorpommern,,Mecklenburgische Seenplatte,53.4726,13.6417,17348,MV
1177.0,Bleckede,Niedersachsen,,Landkreis Lüneburg,53.2897,10.7337,21354,NI
1174.0,Teldau,Mecklenburg-Vorpommern,,Ludwigslust-Parchim,53.3333,10.8267,19273,MV
1174.0,Drolshagen,Nordrhein-Westfalen,Reg.-Bez. Arnsberg,Olpe,51.0236,7.7736,57489,NW
1173.0,Lauenburg/Elbe,Schleswig-Holstein,,Kreis Herzogtum Lauenburg,53.374,10.551,21481,SH
1172.0,Melle,Niedersachsen,,Landkreis Osnabrück,52.2,8.35,49328,NI
1172.0,Ohne,Niedersachsen,,Landkreis Grafschaft Bentheim,52.2667,7.2833,48465,NI
1170.0,Winsen (Luhe),Niedersachsen,,Landkreis Harburg,53.3484,10.2068,21423,NI
1170.0,Freudenberg,Nordrhein-Westfalen,Reg.-Bez. Arnsberg,Siegen-Wittgenstein,50.8974,7.8741,57258,NW
1169.0,Bremen,Bremen,,Kreisfreie Stadt Bremen,53.0441,8.9558,28307,HB
1167.0,Kirchseelte,Niedersachsen,,Landkreis Oldenburg,52.95,8.6833,27243,NI
1167.0,Klein Wesenberg,Schleswig-Holstein,,Kreis Stormarn,53.8167,10.55,23860,SH
1167.0,Tating,Schleswig-Holstein,,Kreis Nordfriesland,54.3261,8.708,25881,SH
1166.0,Hamburg Altengamme,Hamburg,,"Hamburg, Freie und Hansestadt",53.4306,10.2678,21029,HH
1165.0,Lübeck,Schleswig-Holstein,,"Lübeck, Hansestadt",53.8471,10.6845,23560,SH
1164.0,Kirchwalsede,Niedersachsen,,Rotenburg (Wümme),53.0167,9.4,27386,NI
1164.0,Steinfeld (Oldenburg),Niedersachsen,,Vechta,52.5864,8.2157,49439,NI
1163.0,Salzbergen,Niedersachsen,,Landkreis Emsland,52.3256,7.4305,48499,NI
1163.0,Wesselburenerkoog,Schleswig-Holstein,,Kreis Dithmarschen,54.25,8.8833,25764,SH
1163.0,Schwerin,Mecklenburg-Vorpommern,,Schwerin,53.6441,11.4103,19055,MV
1162.0,Langeoog,Niedersachsen,,Landkreis Wittmund,53.75,7.4833,26465,NI
1159.0,Delmenhorst,Niedersachsen,,"Delmenhorst, Stadt",53.0275,8.6385,27755,NI
1159.0,Osnabrück,Niedersachsen,,"Osnabrück, Stadt",52.244,8.0613,49082,NI
1157.0,Strukdorf,Schleswig-Holstein,,Kreis Segeberg,53.9167,10.4833,23815,SH
1157.0,Borkum,Niedersachsen,,Landkreis Leer,53.5809,6.6915,26757,NI
1156.0,Lilienthal,Niedersachsen,,Landkreis Osterholz,53.1419,8.9034,28865,NI
1156.0,Kirchnüchel,Schleswig-Holstein,,Kreis Plön,54.2,10.6833,23714,SH
1152.0,Heist,Schleswig-Holstein,,Kreis Pinneberg,53.65,9.65,25492,SH
1151.0,Jork,Niedersachsen,,Landkreis Stade,53.532,9.6808,21635,NI
1149.0,Neuendorf bei Elmshorn,Schleswig-Holstein,,Kreis Steinburg,53.7333,9.5667,25335,SH
1149.0,Wangerooge,Niedersachsen,,Landkreis Friesland,53.79,7.8994,26486,NI
1144.0,Lemwerder,Niedersachsen,,Wesermarsch,53.1667,8.6167,27809,NI
1141.0,Essen (Oldenburg),Niedersachsen,,Cloppenburg,52.7,7.9167,49632,NI
1139.0,Süderstapel,Schleswig-Holstein,,Kreis Schleswig-Flensburg,54.35,9.2167,25879,SH
1139.0,Geversdorf,Niedersachsen,,Landkreis Cuxhaven,53.8,9.0833,21784,NI
1134.0,Bremerhaven,Bremen,,"Bremerhaven, Stadt",53.5887,8.5977,27578,HB
1129.0,Kiel,Schleswig-Holstein,,Kreisfreie Stadt Kiel,54.3061,10.1448,24143,SH
1128.0,Brügge,Schleswig-Holstein,,Kreis Rendsburg-Eckernförde,54.1758,10.0691,24582,SH
1127.0,Oldenburg,Niedersachsen,,"Oldenburg (Oldenburg), Stadt",53.1267,8.2384,26135,NI
1125.0,Neumünster,Schleswig-Holstein,,Kreisfreie Stadt Neumünster,54.0614,9.9982,24539,SH
1121.0,Edewecht,Niedersachsen,,Ammerland,53.1228,8.1138,26188,NI
1119.0,Wilhelmshaven,Niedersachsen,,"Wilhelmshaven, Stadt",53.577,8.1021,26388,NI
1111.0,Emden,Niedersachsen,,"Emden, Stadt",53.3701,7.2031,26721,NI
1098.0,Flensburg,Schleswig-Holstein,,Kreisfreie Stadt Flensburg,54.7652,9.4109,24941,SH
,Jungholz,,,,47.5741,10.4472,87491,
